{"fetched_at":"2026-03-30T06:02:59Z","count":15439,"tles":[{"name":"STARLINK-32685","line1":"1 62500U 25003P   26087.61903670  .00040710  00000+0  14803-2 0  9997","line2":"2 62500  43.0002 182.3173 0001353 290.3270  69.7436 15.27589830 69518","category":"Starlink"}]}